NORAD_CAT_ID,OBJECT_NAME,OBJECT_TYPE,EPOCH,MEAN_MOTION,ECCENTRICITY,INCLINATION,RA_OF_ASC_NODE,ARG_OF_PERICENTER,MEAN_ANOMALY,BSTAR,MEAN_MOTION_DOT,MEAN_MOTION_DDOT,TLE_LINE0,TLE_LINE1,TLE_LINE2,SEMIMAJOR_AXIS,PERIOD,APOGEE,PERIGEE,DECAYED
53740.0,STARLINK-4607,PAYLOAD,2022-09-12 16:00:00,15.78132059,0.0001024,53.2174,235.7092,101.8406,346.9352,-0.0077217,-0.01195278,0.0,0 STARLINK-4607,1 53740U 22107AS  22255.66667824 -.01195278  00000-0 -77217-2 0  9993,2 53740  53.2174 235.7092 0001024 101.8406 346.9352 15.78132059  1305,6713.87,91.247,336.423,335.048,0.0
53740.0,STARLINK-4607,PAYLOAD,2022-09-12 22:00:00,15.77504463,0.000105,53.2161,234.4627,83.5198,346.0804,-0.0081344,-0.01220647,0.0,0 STARLINK-4607,1 53740U 22107AS  22255.91667824 -.01220647  00000-0 -81344-2 0  9996,2 53740  53.2161 234.4627 0001050  83.5198 346.0804 15.77504463  1308,6715.651,91.283,338.221,336.811,0.0
53740.0,STARLINK-4607,PAYLOAD,2022-09-13 06:00:00,15.76613473,0.0001215,53.2173,232.8059,77.5547,85.5978,-0.0082631,-0.01194713,0.0,0 STARLINK-4607,1 53740U 22107AS  22256.25001157 -.01194713  00000-0 -82631-2 0  9999,2 53740  53.2173 232.8059 0001215  77.5547  85.5978 15.76613473  1393,6718.181,91.335,340.862,339.23,0.0
53740.0,STARLINK-4607,PAYLOAD,2022-09-13 14:00:01,15.75746872,0.0001088,53.2174,231.1482,86.6893,168.9596,-0.0086071,-0.01196992,0.0,0 STARLINK-4607,1 53740U 22107AS  22256.58334491 -.01196992  00000-0 -86071-2 0  9998,2 53740  53.2174 231.1482 0001088  86.6893 168.9596 15.75746872  1301,6720.644,91.385,343.24,341.778,0.0
53740.0,STARLINK-4607,PAYLOAD,2022-09-13 20:00:01,15.75092847,0.0001143,53.2173,229.9057,87.5297,146.8084,-0.0088141,-0.01191573,0.0,0 STARLINK-4607,1 53740U 22107AS  22256.83334491 -.01191573  00000-0 -88141-2 0  9996,2 53740  53.2173 229.9057 0001143  87.5297 146.8084 15.75092847  1485,6722.504,91.423,345.13699999999994,343.601,0.0
53740.0,STARLINK-4607,PAYLOAD,2022-09-13 22:00:00,15.74877259,0.0001,53.2177,229.4923,85.6333,261.4703,-0.0089204,-0.01194148,0.0,0 STARLINK-4607,1 53740U 22107AS  22256.91667824 -.01194148  00000-0 -89204-2 0  9996,2 53740  53.2177 229.4923 0001000  85.6333 261.4703 15.74877259  1308,6723.1169999999975,91.436,345.655,344.31,0.0
53740.0,STARLINK-4607,PAYLOAD,2022-09-14 04:00:00,15.74111644,0.0001147999999999,53.2175,228.2545,76.73899999999998,248.2894,-0.0068074,-0.00894595,0.0,0 STARLINK-4607,1 53740U 22107AS  22257.16667824 -.00894595  00000-0 -68074-2 0  9998,2 53740  53.2175 228.2545 0001148  76.7390 248.2894 15.74111644  1538,6725.297,91.48,347.934,346.39,0.0
53740.0,STARLINK-4607,PAYLOAD,2022-09-14 14:00:01,15.7332379,0.0001179,53.2131,226.1903,101.0467,65.8188,-0.00064822,-0.00091093,0.0,0 STARLINK-4607,1 53740U 22107AS  22257.58334491 -.00091093  00000-0 -64822-3 0  9995,2 53740  53.2131 226.1903 0001179 101.0467  65.8188 15.73323790  1609,6727.542,91.526,350.2,348.61400000000015,0.0
53740.0,STARLINK-4607,PAYLOAD,2022-09-14 22:00:00,15.73311008,0.0001311,53.214,224.5394,114.7722,141.1237,-0.00068566,-0.0009621,0.0,0 STARLINK-4607,1 53740U 22107AS  22257.91667824 -.00096210  00000-0 -68566-3 0  9996,2 53740  53.2140 224.5394 0001311 114.7722 141.1237 15.73311008  1307,6727.579000000002,91.527,350.326,348.56199999999984,0.0
53740.0,STARLINK-4607,PAYLOAD,2022-09-15 04:00:00,15.73249595,0.0001159,53.2142,223.3039,105.3227,127.3526,-0.00055773,-0.00078333,0.0,0 STARLINK-4607,1 53740U 22107AS  22258.16667824 -.00078333  00000-0 -55773-3 0  9996,2 53740  53.2142 223.3039 0001159 105.3227 127.3526 15.73249595  1698,6727.754,91.53,350.399,348.839,0.0
53740.0,STARLINK-4607,PAYLOAD,2022-09-15 14:00:01,15.73219012,0.0001103,53.2144,221.241,109.3845,324.5046,-0.00054875,-0.00076992,0.0,0 STARLINK-4607,1 53740U 22107AS  22258.58334491 -.00076992  00000-0 -54875-3 0  9994,2 53740  53.2144 221.2410 0001103 109.3845 324.5046 15.73219012  1306,6727.840999999999,91.532,350.4480000000001,348.964,0.0
53740.0,STARLINK-4607,PAYLOAD,2022-09-15 22:00:00,15.73145251,0.0001296999999999,53.2145,219.5907,114.4204,48.3887,0.00033614,0.00046707,0.0,0 STARLINK-4607,1 53740U 22107AS  22258.91667824  .00046707  00000-0  33614-3 0  9997,2 53740  53.2145 219.5907 0001297 114.4204  48.3887 15.73145251  1305,6728.051,91.536,350.789,349.0440000000001,0.0
53740.0,STARLINK-4607,PAYLOAD,2022-09-16 00:00:00,15.73156419,0.0001286,53.2144,219.179,112.1628,162.8626,0.00025833,0.00035722,0.0,0 STARLINK-4607,1 53740U 22107AS  22259.00001157  .00035722  00000-0  25833-3 0  9998,2 53740  53.2144 219.1790 0001286 112.1628 162.8626 15.73156419  1821,6728.019,91.536,350.75,349.019,0.0
53740.0,STARLINK-4607,PAYLOAD,2022-09-16 14:00:01,15.73154454,0.0001049,53.2136,216.2925,118.5303,222.0646,0.00019988,0.00027469,0.0,0 STARLINK-4607,1 53740U 22107AS  22259.58334491  .00027469  00000-0  19988-3 0  9994,2 53740  53.2136 216.2925 0001049 118.5303 222.0646 15.73154454  1308,6728.025,91.536,350.596,349.184,0.0
53740.0,STARLINK-4607,PAYLOAD,2022-09-16 16:00:00,15.73140193,0.0001056,53.2137,215.8798,124.481,328.3384,0.00053727,0.00075266,0.0,0 STARLINK-4607,1 53740U 22107AS  22259.66667824  .00075266  00000-0  53727-3 0  9999,2 53740  53.2137 215.8798 0001056 124.4810 328.3384 15.73140193  1932,6728.066,91.537,350.641,349.22,0.0
53740.0,STARLINK-4607,PAYLOAD,2022-09-16 22:00:00,15.73186296,0.0001189,53.2138,214.6425,124.6937,304.7795,0.00040073,0.00055962,0.0,0 STARLINK-4607,1 53740U 22107AS  22259.91667824  .00055962  00000-0  40073-3 0  9998,2 53740  53.2138 214.6425 0001189 124.6937 304.7795 15.73186296  1305,6727.934,91.534,350.599,348.999,0.0
53740.0,STARLINK-4607,PAYLOAD,2022-09-17 06:00:00,15.73227634,0.0001107999999999,53.2139,212.995,110.8636,47.5469,-0.00018081,-0.00025946,0.0,0 STARLINK-4607,1 53740U 22107AS  22260.25001157 -.00025946  00000-0 -18081-3 0  9993,2 53740  53.2139 212.9950 0001108 110.8636  47.5469 15.73227634  2026,6727.816,91.532,350.427,348.936,0.0
53740.0,STARLINK-4607,PAYLOAD,2022-09-17 14:00:01,15.73219182,0.0001189999999999,53.2139,211.3439,118.3983,128.958,-1.0473e-05,-2.091e-05,0.0,0 STARLINK-4607,1 53740U 22107AS  22260.58334491 -.00002091  00000-0 -10473-4 0  9993,2 53740  53.2139 211.3439 0001190 118.3983 128.9580 15.73219182  1307,6727.84,91.532,350.506,348.905,0.0
53740.0,STARLINK-4607,PAYLOAD,2022-09-17 22:00:00,15.73225205,0.000122,53.214,209.6939,124.4448,211.8632,-0.00012728,-0.00018463,0.0,0 STARLINK-4607,1 53740U 22107AS  22260.91667824 -.00018463  00000-0 -12728-3 0  9993,2 53740  53.2140 209.6939 0001220 124.4448 211.8632 15.73225205  2126,6727.823,91.532,350.509,348.86800000000005,0.0
53740.0,STARLINK-4607,PAYLOAD,2022-09-18 14:00:01,15.73198374,0.0001258,53.2133,206.3949,121.6692,32.6176,0.00029388,0.00040822,0.0,0 STARLINK-4607,1 53740U 22107AS  22261.58335648  .00040822  00000-0  29388-3 0  9995,2 53740  53.2133 206.3949 0001258 121.6692  32.6176 15.73198374  2234,6727.9,91.533,350.611,348.918,0.0
53740.0,STARLINK-4607,PAYLOAD,2022-09-18 22:00:00,15.73267979,0.0001482,53.2135,204.7453,123.2577,119.898,-0.00053704,-0.00075537,0.0,0 STARLINK-4607,1 53740U 22107AS  22261.91667824 -.00075537  00000-0 -53704-3 0  9998,2 53740  53.2135 204.7453 0001482 123.2577 119.8980 15.73267979  1303,6727.701,91.529,350.56300000000016,348.569,0.0
53740.0,STARLINK-4607,PAYLOAD,2022-09-19 06:00:02,15.73218471,0.0001389,53.2135,203.0975,113.6005,218.5996,1.9343e-05,2.097e-05,0.0,0 STARLINK-4607,1 53740U 22107AS  22262.25002315  .00002097  00000-0  19343-4 0  9995,2 53740  53.2135 203.0975 0001389 113.6005 218.5996 15.73218471  2330,6727.843000000003,91.532,350.642,348.773,0.0
53740.0,STARLINK-4607,PAYLOAD,2022-09-19 14:00:01,15.73195319,0.0001416999999999,53.2137,201.4461,122.4889,298.6004,-0.00045539,-0.00064034,0.0,0 STARLINK-4607,1 53740U 22107AS  22262.58334491 -.00064034  00000-0 -45539-3 0  9990,2 53740  53.2137 201.4461 0001417 122.4889 298.6004 15.73195319  2383,6727.909000000002,91.533,350.727,348.82,0.0
53740.0,STARLINK-4607,PAYLOAD,2022-09-19 22:00:00,15.73177895,0.0001588,53.2138,199.7965,121.0378,28.9491,0.00031548,0.00043845,0.0,0 STARLINK-4607,1 53740U 22107AS  22262.91667824  .00043845  00000-0  31548-3 0  9996,2 53740  53.2138 199.7965 0001588 121.0378  28.9491 15.73177895  2449,6727.958000000001,91.534,350.892,348.755,0.0
53740.0,STARLINK-4607,PAYLOAD,2022-09-20 14:00:01,15.73174718,0.0001367,53.2133,196.4973,129.9945,197.8536,0.00044954,0.00062875,0.0,0 STARLINK-4607,1 53740U 22107AS  22263.58334491  .00062875  00000-0  44954-3 0  9990,2 53740  53.2133 196.4973 0001367 129.9945 197.8536 15.73174718  2547,6727.967,91.535,350.75199999999984,348.913,0.0
53740.0,STARLINK-4607,PAYLOAD,2022-09-20 22:00:01,15.73270114,0.0001433,53.2136,194.848,129.6839,287.1429,-0.00061499,-0.00086309,0.0,0 STARLINK-4607,1 53740U 22107AS  22263.91668981 -.00086309  00000-0 -61499-3 0  9994,2 53740  53.2136 194.8480 0001433 129.6839 287.1429 15.73270114  1302,6727.695,91.529,350.524,348.596,0.0
53740.0,STARLINK-4607,PAYLOAD,2022-09-21 06:00:00,15.73177359,0.000129,53.2137,193.2,122.7936,22.9504,7.9842e-05,0.00010589,0.0,0 STARLINK-4607,1 53740U 22107AS  22264.25001157  .00010589  00000-0  79842-4 0  9995,2 53740  53.2137 193.2000 0001290 122.7936  22.9504 15.73177359  2652,6727.96,91.534,350.6930000000001,348.957,0.0
53740.0,STARLINK-4607,PAYLOAD,2022-09-21 14:00:01,15.73138307,0.0001416,53.2142,191.5484,128.6288,106.0228,0.00011953,0.00016144,0.0,0 STARLINK-4607,1 53740U 22107AS  22264.58334491  .00016144  00000-0  11953-3 0  9992,2 53740  53.2142 191.5484 0001416 128.6288 106.0228 15.73138307  2703,6728.071,91.537,350.889,348.983,0.0
53740.0,STARLINK-4607,PAYLOAD,2022-09-21 22:00:00,15.73173086,0.0001537,53.2142,189.8994,126.7333,196.7722,0.00015412,0.00021039,0.0,0 STARLINK-4607,1 53740U 22107AS  22264.91667824  .00021039  00000-0  15412-3 0  9991,2 53740  53.2142 189.8994 0001537 126.7333 196.7722 15.73173086  1306,6727.972,91.535,350.871,348.80300000000005,0.0
